NORAD_CAT_ID,OBJECT_NAME,OBJECT_TYPE,EPOCH,MEAN_MOTION,ECCENTRICITY,INCLINATION,RA_OF_ASC_NODE,ARG_OF_PERICENTER,MEAN_ANOMALY,BSTAR,MEAN_MOTION_DOT,MEAN_MOTION_DDOT,TLE_LINE0,TLE_LINE1,TLE_LINE2,SEMIMAJOR_AXIS,PERIOD,APOGEE,PERIGEE,DECAYED
52880.0,STARLINK-4186,PAYLOAD,2023-06-04 21:10:51,15.08837406,9.62e-05,53.2163,222.831,64.5143,295.5949,4.2673e-05,3.91e-06,0.0,0 STARLINK-4186,1 52880U 22062BC  23155.88253597  .00000391  00000-0  42673-4 0  9997,2 52880  53.2163 222.8310 0000962  64.5143 295.5949 15.08837406 53770,6917.888,95.438,540.419,539.088,0.0
52880.0,STARLINK-4186,PAYLOAD,2023-06-05 00:21:37,15.08836451,9.33e-05,53.2158,222.2365,63.912,296.1968,5.4008e-05,5.72e-06,0.0,0 STARLINK-4186,1 52880U 22062BC  23156.01501620  .00000572  00000-0  54008-4 0  9992,2 52880  53.2158 222.2365 0000933  63.9120 296.1968 15.08836451 54288,6917.891,95.438,540.402,539.111,0.0
52880.0,STARLINK-4186,PAYLOAD,2023-06-05 13:04:42,15.08843228,8.71e-05,53.2162,219.8589,73.3381,286.7707,0.00010171,1.332e-05,0.0,0 STARLINK-4186,1 52880U 22062BC  23156.54493070  .00001332  00000-0  10171-3 0  9996,2 52880  53.2162 219.8589 0000871  73.3381 286.7707 15.08843228 53878,6917.871,95.437,540.338,539.133,0.0
52880.0,STARLINK-4186,PAYLOAD,2023-06-05 21:01:38,15.08836031,7.94e-05,53.2162,218.3725,71.8293,288.2786,3.6892e-05,2.99e-06,0.0,0 STARLINK-4186,1 52880U 22062BC  23156.87613718  .00000299  00000-0  36892-4 0  9995,2 52880  53.2162 218.3725 0000794  71.8293 288.2786 15.08836031 54412,6917.893,95.438,540.307,539.208,0.0
52880.0,STARLINK-4186,PAYLOAD,2023-06-06 08:09:20,15.08830479,8.59e-05,53.216,216.2908,70.1472,289.9612,-3.8646e-05,-9.02e-06,0.0,0 STARLINK-4186,1 52880U 22062BC  23157.33982490 -.00000902  00000-0 -38646-4 0  9995,2 52880  53.2160 216.2908 0000859  70.1472 289.9612 15.08830479 54486,6917.909,95.438,540.369,539.18,0.0
52880.0,STARLINK-4186,PAYLOAD,2023-06-06 11:20:06,15.0883403,0.0001059,53.2172,215.6959,84.3771,275.7342,-1.1287e-05,-4.67e-06,0.0,0 STARLINK-4186,1 52880U 22062BC  23157.47230262 -.00000467  00000-0 -11287-4 0  9991,2 52880  53.2172 215.6959 0001059  84.3771 275.7342 15.08834030 54019,6917.899,95.438,540.496,539.031,0.0
52880.0,STARLINK-4186,PAYLOAD,2023-06-07 04:49:21,15.08840222,9.7e-05,53.2163,212.4245,79.6339,280.4762,6.0864e-05,6.81e-06,0.0,0 STARLINK-4186,1 52880U 22062BC  23158.20093760  .00000681  00000-0  60864-4 0  9994,2 52880  53.2163 212.4245 0000970  79.6339 280.4762 15.08840222 54615,6917.88,95.438,540.416,539.074,0.0
52880.0,STARLINK-4186,PAYLOAD,2023-06-07 12:46:16,15.08848215,9.09e-05,53.216,210.9376,70.83,289.279,6.6542e-05,7.72e-06,0.0,0 STARLINK-4186,1 52880U 22062BC  23158.53213206  .00000772  00000-0  66542-4 0  9999,2 52880  53.2160 210.9376 0000909  70.8300 289.2790 15.08848215 54172,6917.855,95.437,540.349,539.091,0.0
52880.0,STARLINK-4186,PAYLOAD,2023-06-07 20:43:12,15.08845766,0.0001101,53.2174,209.4513,75.4679,284.6435,6.7538e-06,-1.8e-06,0.0,0 STARLINK-4186,1 52880U 22062BC  23158.86333532 -.00000180  00000-0  67538-5 0  9991,2 52880  53.2174 209.4513 0001101  75.4679 284.6435 15.08845766 54227,6917.863,95.437,540.489,538.966,0.0
52880.0,STARLINK-4186,PAYLOAD,2023-06-08 09:26:17,15.08838442,9.94e-05,53.2161,207.0713,82.0637,278.0468,9.7107e-05,1.258e-05,0.0,0 STARLINK-4186,1 52880U 22062BC  23159.39325863  .00001258  00000-0  97107-4 0  9998,2 52880  53.2161 207.0713 0000994  82.0637 278.0468 15.08838442 54794,6917.885,95.438,540.438,539.063,0.0
52880.0,STARLINK-4186,PAYLOAD,2023-06-08 12:37:03,15.08840228,0.0001013,53.2161,206.4766,82.435,277.6758,0.00010892,1.446e-05,0.0,0 STARLINK-4186,1 52880U 22062BC  23159.52573736  .00001446  00000-0  10892-3 0  9991,2 52880  53.2161 206.4766 0001013  82.4350 277.6758 15.08840228 54325,6917.88,95.438,540.445,539.044,0.0
52880.0,STARLINK-4186,PAYLOAD,2023-06-09 09:17:04,15.08845092,9.1e-05,53.2154,202.6104,80.1817,279.9278,3.5625e-05,2.79e-06,0.0,0 STARLINK-4186,1 52880U 22062BC  23160.38685528  .00000279  00000-0  35625-4 0  9995,2 52880  53.2154 202.6104 0000910  80.1817 279.9278 15.08845092 54459,6917.865,95.437,540.359,539.1,0.0
52880.0,STARLINK-4186,PAYLOAD,2023-06-09 20:24:46,15.08837625,9.75e-05,53.2153,200.5293,78.1783,281.9319,9.7244e-05,1.26e-05,0.0,0 STARLINK-4186,1 52880U 22062BC  23160.85053749  .00001260  00000-0  97244-4 0  9997,2 52880  53.2153 200.5293 0000975  78.1783 281.9319 15.08837625 54524,6917.888,95.438,540.427,539.078,0.0
52880.0,STARLINK-4186,PAYLOAD,2023-06-10 04:21:42,15.08837656,9.62e-05,53.2153,199.0429,78.0629,282.0471,-2.2717e-05,-6.49e-06,0.0,0 STARLINK-4186,1 52880U 22062BC  23161.18174063 -.00000649  00000-0 -22717-4 0  9992,2 52880  53.2153 199.0429 0000962  78.0629 282.0471 15.08837656 55066,6917.888,95.438,540.418,539.087,0.0
52880.0,STARLINK-4186,PAYLOAD,2023-06-10 12:18:38,15.08838425,0.0001009,53.2156,197.556,82.0753,278.0354,1.3238e-05,-7.7e-07,0.0,0 STARLINK-4186,1 52880U 22062BC  23161.51293984 -.00000077  00000-0  13238-4 0  9995,2 52880  53.2156 197.5560 0001009  82.0753 278.0354 15.08838425 54625,6917.885,95.438,540.448,539.052,0.0
52880.0,STARLINK-4186,PAYLOAD,2023-06-11 08:58:38,15.08839365,0.0001015,53.2154,193.6902,81.9762,278.1345,1.9002e-05,1.5e-07,0.0,0 STARLINK-4186,1 52880U 22062BC  23162.37406008  .00000015  00000-0  19002-4 0  9999,2 52880  53.2154 193.6902 0001015  81.9762 278.1345 15.08839365 55249,6917.882,95.438,540.449,539.045,0.0
52880.0,STARLINK-4186,PAYLOAD,2023-06-11 18:30:57,15.088356,0.0001066,53.2156,191.9063,83.7937,276.3176,1.0585e-05,-1.19e-06,0.0,0 STARLINK-4186,1 52880U 22062BC  23162.77150334 -.00000119  00000-0  10585-4 0  9994,2 52880  53.2156 191.9063 0001066  83.7937 276.3176 15.08835600 54812,6917.894,95.438,540.496,539.021,0.0
52880.0,STARLINK-4186,PAYLOAD,2023-06-12 08:49:25,15.08836872,9.97e-05,53.2153,189.2296,81.4292,278.6813,7.7414e-05,9.44e-06,0.0,0 STARLINK-4186,1 52880U 22062BC  23163.36766184  .00000944  00000-0  77414-4 0  9995,2 52880  53.2153 189.2296 0000997  81.4292 278.6813 15.08836872 54903,6917.89,95.438,540.445,539.065,0.0
52880.0,STARLINK-4186,PAYLOAD,2023-06-12 18:21:45,15.08836087,9.77e-05,53.2154,187.4453,78.4537,281.6565,3.8421e-05,3.24e-06,0.0,0 STARLINK-4186,1 52880U 22062BC  23163.76510426  .00000324  00000-0  38421-4 0  9992,2 52880  53.2154 187.4453 0000977  78.4537 281.6565 15.08836087 55452,6917.892,95.438,540.433,539.081,0.0
52880.0,STARLINK-4186,PAYLOAD,2023-06-13 02:18:40,15.08834452,9.78e-05,53.2154,185.9585,79.7477,280.3625,3.2836e-05,2.35e-06,0.0,0 STARLINK-4186,1 52880U 22062BC  23164.09630663  .00000235  00000-0  32836-4 0  9990,2 52880  53.2154 185.9585 0000978  79.7477 280.3625 15.08834452 55018,6917.897,95.438,540.439,539.086,0.0
52880.0,STARLINK-4186,PAYLOAD,2023-06-13 18:12:32,15.08838626,9.94e-05,53.2156,182.9847,78.8897,281.2206,3.2654e-05,2.32e-06,0.0,0 STARLINK-4186,1 52880U 22062BC  23164.75870519  .00000232  00000-0  32654-4 0  9994,2 52880  53.2156 182.9847 0000994  78.8897 281.2206 15.08838626 55115,6917.885,95.438,540.437,539.062,0.0
52880.0,STARLINK-4186,PAYLOAD,2023-06-13 22:58:41,15.08836563,9.59e-05,53.2157,182.0926,81.6963,278.4138,6.292e-05,7.14e-06,0.0,0 STARLINK-4186,1 52880U 22062BC  23164.95742579  .00000714  00000-0  62920-4 0  9994,2 52880  53.2157 182.0926 0000959  81.6963 278.4138 15.08836563 55639,6917.891,95.438,540.419,539.092,0.0
52880.0,STARLINK-4186,PAYLOAD,2023-06-14 10:06:23,15.08839426,9.76e-05,53.2157,180.0112,81.7949,278.3153,5.3969e-05,5.71e-06,0.0,0 STARLINK-4186,1 52880U 22062BC  23165.42110507  .00000571  00000-0  53969-4 0  9991,2 52880  53.2157 180.0112 0000976  81.7949 278.3153 15.08839426 55219,6917.882,95.438,540.422,539.072,0.0
52880.0,STARLINK-4186,PAYLOAD,2023-06-14 18:03:19,15.08838541,9.72e-05,53.2159,178.5247,83.3864,276.7239,5.5237e-05,5.91e-06,0.0,0 STARLINK-4186,1 52880U 22062BC  23165.75230571  .00000591  00000-0  55237-4 0  9993,2 52880  53.2159 178.5247 0000972  83.3864 276.7239 15.08838541 55261,6917.885,95.438,540.422,539.077,0.0
52880.0,STARLINK-4186,PAYLOAD,2023-06-15 00:24:51,15.08837567,9.76e-05,53.2155,177.3347,83.7267,276.3836,5.9882e-05,6.65e-06,0.0,0 STARLINK-4186,1 52880U 22062BC  23166.01726634  .00000665  00000-0  59882-4 0  9995,2 52880  53.2155 177.3347 0000976  83.7267 276.3836 15.08837567 55794,6917.888,95.438,540.428,539.078,0.0
52880.0,STARLINK-4186,PAYLOAD,2023-06-15 08:21:47,15.0883986,9.77e-05,53.2157,175.848,83.4105,276.6999,6.05e-05,6.75e-06,0.0,0 STARLINK-4186,1 52880U 22062BC  23166.34846525  .00000675  00000-0  60500-4 0  9993,2 52880  53.2157 175.8480 0000977  83.4105 276.6999 15.08839860 55359,6917.881,95.438,540.422,539.07,0.0
52880.0,STARLINK-4186,PAYLOAD,2023-06-15 17:54:06,15.08839776,9.76e-05,53.2157,174.0638,82.5486,277.5617,5.527e-05,5.92e-06,0.0,0 STARLINK-4186,1 52880U 22062BC  23166.74590561  .00000592  00000-0  55270-4 0  9999,2 52880  53.2157 174.0638 0000976  82.5486 277.5617 15.08839776 55416,6917.881,95.438,540.421,539.071,0.0
52880.0,STARLINK-4186,PAYLOAD,2023-06-16 09:47:57,15.08843328,9.97e-05,53.2155,171.0901,83.0293,277.0813,6.6919e-05,7.78e-06,0.0,0 STARLINK-4186,1 52880U 22062BC  23167.40830276  .00000778  00000-0  66919-4 0  9991,2 52880  53.2155 171.0901 0000997  83.0293 277.0813 15.08843328 56006,6917.87,95.437,540.425,539.046,0.0
52880.0,STARLINK-4186,PAYLOAD,2023-06-16 17:44:53,15.08842284,9.96e-05,53.2156,169.6032,82.4342,277.6763,4.9555e-05,5.01e-06,0.0,0 STARLINK-4186,1 52880U 22062BC  23167.73950319  .00000501  00000-0  49555-4 0  9999,2 52880  53.2156 169.6032 0000996  82.4342 277.6763 15.08842284 55562,6917.873,95.437,540.427,539.049,0.0
52880.0,STARLINK-4186,PAYLOAD,2023-06-17 09:38:44,15.08842492,0.0001009,53.2156,166.6292,85.4167,274.6941,5.1972e-05,5.4e-06,0.0,0 STARLINK-4186,1 52880U 22062BC  23168.40190218  .00000540  00000-0  51972-4 0  9997,2 52880  53.2156 166.6292 0001009  85.4167 274.6941 15.08842492 55668,6917.873,95.437,540.436,539.04,0.0
